start=new Date('2023-04-23T00:00:00.000Z').valueOf();
sats=[{"FILE":"3892285","COUNTRY_CODE":"US","MEAN_MOTION_DOT":"0.00003359","PERIOD":"95.436","MEAN_MOTION":"15.08857510","REF_FRAME":"TEME","TLE_LINE2":"2 50823  53.2158 211.4491 0001372  83.7551 276.3598 15.08857510 71602","GP_ID":"230594563","REV_AT_EPOCH":"7160","EPHEMERIS_TYPE":"0","ELEMENT_SET_NO":"999","OBJECT_NAME":"STARLINK-3334","TLE_LINE1":"1 50823U 22001W   23112.75148937  .00003359  00000-0  22892-3 0  9992","SEMIMAJOR_AXIS":"6917.827","LAUNCH_DATE":"2022-01-06","CENTER_NAME":"EARTH","OBJECT_TYPE":"PAYLOAD","TIME_SYSTEM":"UTC","APOAPSIS":"540.641","OBJECT_ID":"2022-001W","MEAN_MOTION_DDOT":"0.0000000000000","RCS_SIZE":"LARGE","PERIAPSIS":"538.743","RA_OF_ASC_NODE":"211.4491","EPOCH":"2023-04-22T18:02:08.681568","CLASSIFICATION_TYPE":"U","ECCENTRICITY":"0.00013720","INCLINATION":"53.2158","DECAY_DATE":null,"NORAD_CAT_ID":"50823","BSTAR":"0.00022892000000","SITE":"AFETR","MEAN_ANOMALY":"276.3598","MEAN_ELEMENT_THEORY":"SGP4","ARG_OF_PERICENTER":"83.7551"},{"REF_FRAME":"TEME","GP_ID":"230594813","TLE_LINE2":"2 50824  53.2152 211.6138 0001345  84.7847 275.3299 15.08852328 71593","EPHEMERIS_TYPE":"0","REV_AT_EPOCH":"7159","FILE":"3892285","PERIOD":"95.437","MEAN_MOTION_DOT":"0.00005525","COUNTRY_CODE":"US","MEAN_MOTION":"15.08852328","CENTER_NAME":"EARTH","LAUNCH_DATE":"2022-01-06","OBJECT_TYPE":"PAYLOAD","ELEMENT_SET_NO":"999","OBJECT_NAME":"STARLINK-3340","SEMIMAJOR_AXIS":"6917.843","TLE_LINE1":"1 50824U 22001X   23112.71470326  .00005525  00000-0  36480-3 0  9994","OBJECT_ID":"2022-001X","RCS_SIZE":"LARGE","MEAN_MOTION_DDOT":"0.0000000000000","RA_OF_ASC_NODE":"211.6138","EPOCH":"2023-04-22T17:09:10.361664","PERIAPSIS":"538.777","TIME_SYSTEM":"UTC","APOAPSIS":"540.638","SITE":"AFETR","BSTAR":"0.00036480000000","MEAN_ELEMENT_THEORY":"SGP4","MEAN_ANOMALY":"275.3299","ARG_OF_PERICENTER":"84.7847","CLASSIFICATION_TYPE":"U","ECCENTRICITY":"0.00013450","NORAD_CAT_ID":"50824","DECAY_DATE":null,"INCLINATION":"53.2152"},{"CLASSIFICATION_TYPE":"U","DECAY_DATE":null,"INCLINATION":"53.2155","NORAD_CAT_ID":"50825","ECCENTRICITY":"0.00013080","MEAN_ANOMALY":"278.5954","MEAN_ELEMENT_THEORY":"SGP4","SITE":"AFETR","BSTAR":"0.00009710100000","ARG_OF_PERICENTER":"81.5187","TIME_SYSTEM":"UTC","APOAPSIS":"540.645","MEAN_MOTION_DDOT":"0.0000000000000","RCS_SIZE":"LARGE","OBJECT_ID":"2022-001Y","PERIAPSIS":"538.836","EPOCH":"2023-04-22T12:33:37.300896","RA_OF_ASC_NODE":"212.4748","ELEMENT_SET_NO":"999","SEMIMAJOR_AXIS":"6917.876","TLE_LINE1":"1 50825U 22001Y   23112.52334839  .00001258  00000-0  97101-4 0  9999","OBJECT_NAME":"STARLINK-3332","LAUNCH_DATE":"2022-01-06","CENTER_NAME":"EARTH","OBJECT_TYPE":"PAYLOAD","COUNTRY_CODE":"US","MEAN_MOTION_DOT":"0.00001258","PERIOD":"95.437","FILE":"3892285","MEAN_MOTION":"15.08841578","TLE_LINE2":"2 50825  53.2155 212.4748 0001308  81.5187 278.5954 15.08841578 71569","GP_ID":"230595564","REF_FRAME":"TEME","REV_AT_EPOCH":"7156","EPHEMERIS_TYPE":"0"},{"OBJECT_ID":"2022-001Z","MEAN_MOTION_DDOT":"0.0000000000000","RCS_SIZE":"LARGE","PERIAPSIS":"538.623","RA_OF_ASC_NODE":"211.3872","EPOCH":"2023-04-22T18:23:21.347520","TIME_SYSTEM":"UTC","APOAPSIS":"540.823","BSTAR":"0.00014542000000","SITE":"AFETR","MEAN_ANOMALY":"241.3948","MEAN_ELEMENT_THEORY":"SGP4","ARG_OF_PERICENTER":"118.7204","CLASSIFICATION_TYPE":"U","ECCENTRICITY":"0.00015900","NORAD_CAT_ID":"50826","DECAY_DATE":null,"INCLINATION":"53.2160","REF_FRAME":"TEME","TLE_LINE2":"2 50826  53.2160 211.3872 0001590 118.7204 241.3948 15.08847212 71605","GP_ID":"230596314","EPHEMERIS_TYPE":"0","REV_AT_EPOCH":"7160","FILE":"3892285","COUNTRY_CODE":"US","PERIOD":"95.437","MEAN_MOTION_DOT":"0.00002028","MEAN_MOTION":"15.08847212","LAUNCH_DATE":"2022-01-06","CENTER_NAME":"EARTH","OBJECT_TYPE":"PAYLOAD","ELEMENT_SET_NO":"999","OBJECT_NAME":"STARLINK-3337","SEMIMAJOR_AXIS":"6917.858","TLE_LINE1":"1 50826U 22001Z   23112.76621930  .00002028  00000-0  14542-3 0  9990"},{"OBJECT_ID":"2022-001AA","MEAN_MOTION_DDOT":"0.0000000000000","RCS_SIZE":"LARGE","PERIAPSIS":"538.872","EPOCH":"2023-04-22T16:00:17.466912","RA_OF_ASC_NODE":"211.8337","TIME_SYSTEM":"UTC","APOAPSIS":"540.598","SITE":"AFETR","BSTAR":"0.00022216000000","MEAN_ANOMALY":"289.7880","MEAN_ELEMENT_THEORY":"SGP4","ARG_OF_PERICENTER":"70.3246","CLASSIFICATION_TYPE":"U","ECCENTRICITY":"0.00012470","NORAD_CAT_ID":"50827","DECAY_DATE":null,"INCLINATION":"53.2155","REF_FRAME":"TEME","GP_ID":"230595063","TLE_LINE2":"2 50827  53.2155 211.8337 0001247  70.3246 289.7880 15.08843422 71586","REV_AT_EPOCH":"7158","EPHEMERIS_TYPE":"0","FILE":"3892285","COUNTRY_CODE":"US","PERIOD":"95.437","MEAN_MOTION_DOT":"0.00003250","MEAN_MOTION":"15.08843422","CENTER_NAME":"EARTH","LAUNCH_DATE":"2022-01-06","OBJECT_TYPE":"PAYLOAD","ELEMENT_SET_NO":"999","OBJECT_NAME":"STARLINK-3329","SEMIMAJOR_AXIS":"6917.870","TLE_LINE1":"1 50827U 22001AA  23112.66686883  .00003250  00000-0  22216-3 0  9993"},{"TIME_SYSTEM":"UTC","APOAPSIS":"538.123","RA_OF_ASC_NODE":"211.7941","EPOCH":"2023-04-22T15:43:07.490784","PERIAPSIS":"536.290","RCS_SIZE":"LARGE","MEAN_MOTION_DDOT":"0.0000000000000","OBJECT_ID":"2022-001AB","DECAY_DATE":null,"NORAD_CAT_ID":"50828","INCLINATION":"53.2169","ECCENTRICITY":"0.00013250","CLASSIFICATION_TYPE":"U","ARG_OF_PERICENTER":"93.5226","MEAN_ELEMENT_THEORY":"SGP4","MEAN_ANOMALY":"266.5918","SITE":"AFETR","BSTAR":"0.00053268000000","MEAN_MOTION":"15.09671052","PERIOD":"95.385","MEAN_MOTION_DOT":"0.00008393","COUNTRY_CODE":"US","FILE":"3892285","REV_AT_EPOCH":"7143","EPHEMERIS_TYPE":"0","TLE_LINE2":"2 50828  53.2169 211.7941 0001325  93.5226 266.5918 15.09671052 71432","GP_ID":"230595313","REF_FRAME":"TEME","TLE_LINE1":"1 50828U 22001AB  23112.65494781  .00008393  00000-0  53268-3 0  9991","SEMIMAJOR_AXIS":"6915.341","OBJECT_NAME":"STARLINK-3290","ELEMENT_SET_NO":"999","OBJECT_TYPE":"PAYLOAD","CENTER_NAME":"EARTH","LAUNCH_DATE":"2022-01-06"},{"RCS_SIZE":"LARGE","MEAN_MOTION_DDOT":"0.0000000000000","OBJECT_ID":"2022-001AC","EPOCH":"2023-04-22T17:46:15.604032","RA_OF_ASC_NODE":"211.4998","PERIAPSIS":"539.311","APOAPSIS":"540.064","TIME_SYSTEM":"UTC","MEAN_ELEMENT_THEORY":"SGP4","MEAN_ANOMALY":"279.2279","SITE":"AFETR","BSTAR":"0.00044220000000","ARG_OF_PERICENTER":"80.8774","CLASSIFICATION_TYPE":"U","INCLINATION":"53.2166","DECAY_DATE":null,"NORAD_CAT_ID":"50829","ECCENTRICITY":"0.00005440","TLE_LINE2":"2 50829  53.2166 211.4998 0000544  80.8774 279.2279 15.08858845 71592","GP_ID":"230596064","REF_FRAME":"TEME","REV_AT_EPOCH":"7159","EPHEMERIS_TYPE":"0","MEAN_MOTION_DOT":"0.00006761","PERIOD":"95.436","COUNTRY_CODE":"US","FILE":"3892285","MEAN_MOTION":"15.08858845","CENTER_NAME":"EARTH","LAUNCH_DATE":"2022-01-06","OBJECT_TYPE":"PAYLOAD","ELEMENT_SET_NO":"999","TLE_LINE1":"1 50829U 22001AC  23112.74045838  .00006761  00000-0  44220-3 0  9992","SEMIMAJOR_AXIS":"6917.823","OBJECT_NAME":"STARLINK-3294"},{"RA_OF_ASC_NODE":"222.6163","EPOCH":"2023-04-22T11:49:54.279840","PERIAPSIS":"538.648","OBJECT_ID":"2022-001AD","RCS_SIZE":"LARGE","MEAN_MOTION_DDOT":"0.0000000000000","TIME_SYSTEM":"UTC","APOAPSIS":"540.844","ARG_OF_PERICENTER":"84.3070","BSTAR":"0.00016446000000","SITE":"AFETR","MEAN_ELEMENT_THEORY":"SGP4","MEAN_ANOMALY":"275.8103","ECCENTRICITY":"0.00015870","INCLINATION":"53.2176","DECAY_DATE":null,"NORAD_CAT_ID":"50830","CLASSIFICATION_TYPE":"U","REV_AT_EPOCH":"7142","EPHEMERIS_TYPE":"0","REF_FRAME":"TEME","GP_ID":"230595815","TLE_LINE2":"2 50830  53.2176 222.6163 0001587  84.3070 275.8103 15.08839834 71426","MEAN_MOTION":"15.08839834","FILE":"3892285","MEAN_MOTION_DOT":"0.00002330","PERIOD":"95.438","COUNTRY_CODE":"US","OBJECT_TYPE":"PAYLOAD","LAUNCH_DATE":"2022-01-06","CENTER_NAME":"EARTH","OBJECT_NAME":"STARLINK-3278","SEMIMAJOR_AXIS":"6917.881","TLE_LINE1":"1 50830U 22001AD  23112.49298935  .00002330  00000-0  16446-3 0  9991","ELEMENT_SET_NO":"999"},{"ECCENTRICITY":"0.00012940","DECAY_DATE":null,"INCLINATION":"53.2152","NORAD_CAT_ID":"50831","CLASSIFICATION_TYPE":"U","ARG_OF_PERICENTER":"70.3593","BSTAR":"0.00050116000000","SITE":"AFETR","MEAN_ANOMALY":"289.7539","MEAN_ELEMENT_THEORY":"SGP4","APOAPSIS":"540.590","TIME_SYSTEM":"UTC","PERIAPSIS":"538.800","EPOCH":"2023-04-22T15:17:54.021984","RA_OF_ASC_NODE":"212.0306","OBJECT_ID":"2022-001AE","MEAN_MOTION_DDOT":"0.0000000000000","RCS_SIZE":"LARGE","OBJECT_NAME":"STARLINK-3299","SEMIMAJOR_AXIS":"6917.830","TLE_LINE1":"1 50831U 22001AE  23112.63743081  .00007701  00000-0  50116-3 0  9994","ELEMENT_SET_NO":"999","OBJECT_TYPE":"PAYLOAD","LAUNCH_DATE":"2022-01-06","CENTER_NAME":"EARTH","MEAN_MOTION":"15.08856513","FILE":"3892285","COUNTRY_CODE":"US","PERIOD":"95.437","MEAN_MOTION_DOT":"0.00007701","EPHEMERIS_TYPE":"0","REV_AT_EPOCH":"7158","REF_FRAME":"TEME","TLE_LINE2":"2 50831  53.2152 212.0306 0001294  70.3593 289.7539 15.08856513 71580","GP_ID":"230594564"},{"MEAN_MOTION":"15.08856282","FILE":"3892285","PERIOD":"95.437","MEAN_MOTION_DOT":"0.00021975","COUNTRY_CODE":"US","EPHEMERIS_TYPE":"0","REV_AT_EPOCH":"7147","REF_FRAME":"TEME","GP_ID":"230594814","TLE_LINE2":"2 50832  53.2143 221.1399 0001335  72.7169 287.3969 15.08856282 71477","OBJECT_NAME":"STARLINK-3328","TLE_LINE1":"1 50832U 22001AF  23112.82051100  .00021975  00000-0  13939-2 0  9990","SEMIMAJOR_AXIS":"6917.831","ELEMENT_SET_NO":"999","OBJECT_TYPE":"PAYLOAD","CENTER_NAME":"EARTH","LAUNCH_DATE":"2022-01-06","APOAPSIS":"540.619","TIME_SYSTEM":"UTC","EPOCH":"2023-04-22T19:41:32.150400","RA_OF_ASC_NODE":"221.1399","PERIAPSIS":"538.772","OBJECT_ID":"2022-001AF","RCS_SIZE":"LARGE","MEAN_MOTION_DDOT":"0.0000000000000","ECCENTRICITY":"0.00013350","DECAY_DATE":null,"NORAD_CAT_ID":"50832","INCLINATION":"53.2143","CLASSIFICATION_TYPE":"U","ARG_OF_PERICENTER":"72.7169","SITE":"AFETR","BSTAR":"0.00139390000000","MEAN_ELEMENT_THEORY":"SGP4","MEAN_ANOMALY":"287.3969"}];
